{
    "links": {
        "self": "http://www.neowsapp.com/rest/v1/neo/3779443?api_key=iIulBulltgU6a56xZRHN4H3l9WmuAYTsLGpBGhQ2"
    },
    "id": "3779443",
    "neo_reference_id": "3779443",
    "name": "(2017 OA68)",
    "designation": "2017 OA68",
    "nasa_jpl_url": "http://ssd.jpl.nasa.gov/sbdb.cgi?sstr=3779443",
    "absolute_magnitude_h": 22.5,
    "estimated_diameter": {
        "kilometers": {
            "estimated_diameter_min": 0.0840533402,
            "estimated_diameter_max": 0.1879489824
        },
        "meters": {
            "estimated_diameter_min": 84.0533402073,
            "estimated_diameter_max": 187.9489824394
        },
        "miles": {
            "estimated_diameter_min": 0.0522283081,
            "estimated_diameter_max": 0.1167860472
        },
        "feet": {
            "estimated_diameter_min": 275.7655606856,
            "estimated_diameter_max": 616.6305395464
        }
    },
    "is_potentially_hazardous_asteroid": false,
    "close_approach_data": [
        {
            "close_approach_date": "2015-07-21",
            "close_approach_date_full": "2015-Jul-21 05:32",
            "epoch_date_close_approach": 1437456720000,
            "relative_velocity": {
                "kilometers_per_second": "18.5140008248",
                "kilometers_per_hour": "66650.4029691486",
                "miles_per_hour": "41413.9684449135"
            },
            "miss_distance": {
                "astronomical": "0.4754564499",
                "lunar": "184.9525590111",
                "kilometers": "71127272.182801713",
                "miles": "44196437.5183531194"
            },
            "orbiting_body": "Earth"
        },
        {
            "close_approach_date": "2017-07-23",
            "close_approach_date_full": "2017-Jul-23 14:37",
            "epoch_date_close_approach": 1500820620000,
            "relative_velocity": {
                "kilometers_per_second": "13.6977841787",
                "kilometers_per_hour": "49312.0230433664",
                "miles_per_hour": "30640.5734293629"
            },
            "miss_distance": {
                "astronomical": "0.2885718825",
                "lunar": "112.2544622925",
                "kilometers": "43169738.963890275",
                "miles": "26824431.926724795"
            },
            "orbiting_body": "Earth"
        }
    ],
    "orbital_data": {
        "orbit_id": "1",
        "orbit_determination_date": "2017-08-04 08:12:05",
        "first_observation_date": "2017-07-26",
        "last_observation_date": "2017-08-03",
        "data_arc_in_days": 8,
        "observations_used": 13,
        "orbit_uncertainty": "8",
        "minimum_orbit_intersection": ".260714",
        "jupiter_tisserand_invariant": "4.323",
        "epoch_osculation": "2457962.5",
        "eccentricity": ".2358597217679593",
        "semi_major_axis": "1.537757896475551",
        "inclination": "27.26877378412864",
        "ascending_node_longitude": "128.30531593",
        "orbital_period": "696.5148426334845",
        "perihelion_distance": "1.175062746866345",
        "perihelion_argument": "120.0686080664571",
        "aphelion_distance": "1.900453046084757",
        "perihelion_time": "2457887.763140702926",
        "mean_anomaly": "38.62842210974183",
        "mean_motion": ".5168590501802657",
        "equinox": "J2000",
        "orbit_class": {
            "orbit_class_type": "AMO",
            "orbit_class_description": "Near-Earth asteroid orbits similar to that of 1221 Amor",
            "orbit_class_range": "1.017 AU < q (perihelion) < 1.3 AU"
        }
    },
    "is_sentry_object": false
}